start=new Date('2022-10-10T00:00:00.000Z').valueOf();
sats=[{"SITE":"AFETR","PERIOD":"95.592","EPHEMERIS_TYPE":"0","BSTAR":"0.00009241000000","REF_FRAME":"TEME","RCS_SIZE":"LARGE","INCLINATION":"53.0545","OBJECT_TYPE":"PAYLOAD","REV_AT_EPOCH":"10405","DECAY_DATE":null,"OBJECT_ID":"2020-088BB","COUNTRY_CODE":"US","ARG_OF_PERICENTER":"92.4935","TLE_LINE1":"1 47171U 20088BB  22282.86179875  .00001095  00000-0  92410-4 0  9990","SEMIMAJOR_AXIS":"6925.354","OBJECT_NAME":"STARLINK-1888","PERIAPSIS":"546.297","RA_OF_ASC_NODE":"128.8416","CENTER_NAME":"EARTH","MEAN_MOTION_DDOT":"0.0000000000000","APOAPSIS":"548.140","MEAN_MOTION":"15.06398360","GP_ID":"214601681","MEAN_ANOMALY":"267.6207","MEAN_ELEMENT_THEORY":"SGP4","CLASSIFICATION_TYPE":"U","ELEMENT_SET_NO":"999","FILE":"3598879","TIME_SYSTEM":"UTC","NORAD_CAT_ID":"47171","ECCENTRICITY":"0.00013310","TLE_LINE2":"2 47171  53.0545 128.8416 0001331  92.4935 267.6207 15.06398360104055","LAUNCH_DATE":"2020-11-25","MEAN_MOTION_DOT":"0.00001095","EPOCH":"2022-10-09T20:40:59.412000"},{"MEAN_MOTION_DDOT":"0.0000000000000","CENTER_NAME":"EARTH","APOAPSIS":"548.125","GP_ID":"214602430","MEAN_MOTION":"15.06399601","PERIAPSIS":"546.304","RA_OF_ASC_NODE":"138.8920","ECCENTRICITY":"0.00013150","FILE":"3598879","NORAD_CAT_ID":"47173","TIME_SYSTEM":"UTC","LAUNCH_DATE":"2020-11-25","MEAN_MOTION_DOT":"0.00000977","TLE_LINE2":"2 47173  53.0544 138.8920 0001315 113.0217 247.0910 15.06399601103918","EPOCH":"2022-10-09T20:29:02.132160","MEAN_ELEMENT_THEORY":"SGP4","MEAN_ANOMALY":"247.0910","ELEMENT_SET_NO":"999","CLASSIFICATION_TYPE":"U","BSTAR":"0.00008449000000","EPHEMERIS_TYPE":"0","REF_FRAME":"TEME","RCS_SIZE":"LARGE","OBJECT_TYPE":"PAYLOAD","INCLINATION":"53.0544","SITE":"AFETR","PERIOD":"95.592","TLE_LINE1":"1 47173U 20088BD  22282.85349690  .00000977  00000-0  84490-4 0  9992","ARG_OF_PERICENTER":"113.0217","SEMIMAJOR_AXIS":"6925.350","OBJECT_NAME":"STARLINK-1890","REV_AT_EPOCH":"10391","DECAY_DATE":null,"OBJECT_ID":"2020-088BD","COUNTRY_CODE":"US"},{"OBJECT_ID":"2020-088BE","COUNTRY_CODE":"US","REV_AT_EPOCH":"10391","DECAY_DATE":null,"TLE_LINE1":"1 47174U 20088BE  22282.86456991  .00002232  00000-0  16874-3 0  9993","OBJECT_NAME":"STARLINK-1891","SEMIMAJOR_AXIS":"6925.367","ARG_OF_PERICENTER":"105.3566","PERIOD":"95.593","SITE":"AFETR","RCS_SIZE":"LARGE","INCLINATION":"53.0532","OBJECT_TYPE":"PAYLOAD","EPHEMERIS_TYPE":"0","BSTAR":"0.00016874000000","REF_FRAME":"TEME","CLASSIFICATION_TYPE":"U","ELEMENT_SET_NO":"999","MEAN_ANOMALY":"254.7570","MEAN_ELEMENT_THEORY":"SGP4","EPOCH":"2022-10-09T20:44:58.840224","NORAD_CAT_ID":"47174","FILE":"3598879","TIME_SYSTEM":"UTC","ECCENTRICITY":"0.00013350","TLE_LINE2":"2 47174  53.0532 138.8235 0001335 105.3566 254.7570 15.06394141103919","LAUNCH_DATE":"2020-11-25","MEAN_MOTION_DOT":"0.00002232","RA_OF_ASC_NODE":"138.8235","PERIAPSIS":"546.307","MEAN_MOTION":"15.06394141","GP_ID":"214602684","CENTER_NAME":"EARTH","MEAN_MOTION_DDOT":"0.0000000000000","APOAPSIS":"548.156"},{"PERIAPSIS":"546.241","RA_OF_ASC_NODE":"118.8500","CENTER_NAME":"EARTH","MEAN_MOTION_DDOT":"0.0000000000000","APOAPSIS":"548.251","MEAN_MOTION":"15.06389487","GP_ID":"214601435","MEAN_ANOMALY":"277.4783","MEAN_ELEMENT_THEORY":"SGP4","CLASSIFICATION_TYPE":"U","ELEMENT_SET_NO":"999","FILE":"3598879","NORAD_CAT_ID":"47175","ECCENTRICITY":"0.00014510","TIME_SYSTEM":"UTC","TLE_LINE2":"2 47175  53.0545 118.8500 0001451  82.6371 277.4783 15.06389487104193","LAUNCH_DATE":"2020-11-25","MEAN_MOTION_DOT":"-0.00000136","EPOCH":"2022-10-09T20:42:20.189952","SITE":"AFETR","PERIOD":"95.593","EPHEMERIS_TYPE":"0","BSTAR":"0.00000978980000","REF_FRAME":"TEME","RCS_SIZE":"LARGE","INCLINATION":"53.0545","OBJECT_TYPE":"PAYLOAD","REV_AT_EPOCH":"10419","DECAY_DATE":null,"OBJECT_ID":"2020-088BF","COUNTRY_CODE":"US","SEMIMAJOR_AXIS":"6925.381","TLE_LINE1":"1 47175U 20088BF  22282.86273368 -.00000136  00000-0  97898-5 0  9998","OBJECT_NAME":"STARLINK-1895","ARG_OF_PERICENTER":"82.6371"},{"OBJECT_ID":"2020-088BH","COUNTRY_CODE":"US","REV_AT_EPOCH":"10405","DECAY_DATE":null,"TLE_LINE1":"1 47177U 20088BH  22282.84704862  .00003129  00000-0  22877-3 0  9993","OBJECT_NAME":"STARLINK-1907","SEMIMAJOR_AXIS":"6925.307","ARG_OF_PERICENTER":"75.0862","PERIOD":"95.591","SITE":"AFETR","RCS_SIZE":"LARGE","INCLINATION":"53.0527","OBJECT_TYPE":"PAYLOAD","EPHEMERIS_TYPE":"0","BSTAR":"0.00022877000000","REF_FRAME":"TEME","CLASSIFICATION_TYPE":"U","ELEMENT_SET_NO":"999","MEAN_ANOMALY":"285.0285","MEAN_ELEMENT_THEORY":"SGP4","EPOCH":"2022-10-09T20:19:45.000768","FILE":"3598879","NORAD_CAT_ID":"47177","ECCENTRICITY":"0.00014280","TIME_SYSTEM":"UTC","TLE_LINE2":"2 47177  53.0527 128.9229 0001428  75.0862 285.0285 15.06413432104055","LAUNCH_DATE":"2020-11-25","MEAN_MOTION_DOT":"0.00003129","RA_OF_ASC_NODE":"128.9229","PERIAPSIS":"546.183","MEAN_MOTION":"15.06413432","GP_ID":"214602181","CENTER_NAME":"EARTH","MEAN_MOTION_DDOT":"0.0000000000000","APOAPSIS":"548.161"},{"PERIOD":"95.592","SITE":"AFETR","RCS_SIZE":"LARGE","OBJECT_TYPE":"PAYLOAD","INCLINATION":"53.0549","BSTAR":"0.00027083000000","EPHEMERIS_TYPE":"0","REF_FRAME":"TEME","OBJECT_ID":"2020-088BJ","COUNTRY_CODE":"US","REV_AT_EPOCH":"10391","DECAY_DATE":null,"SEMIMAJOR_AXIS":"6925.331","TLE_LINE1":"1 47178U 20088BJ  22282.89404487  .00003755  00000-0  27083-3 0  9998","ARG_OF_PERICENTER":"108.5980","OBJECT_NAME":"STARLINK-1912","RA_OF_ASC_NODE":"138.7115","PERIAPSIS":"546.245","GP_ID":"214602930","MEAN_MOTION":"15.06405882","MEAN_MOTION_DDOT":"0.0000000000000","CENTER_NAME":"EARTH","APOAPSIS":"548.146","ELEMENT_SET_NO":"999","CLASSIFICATION_TYPE":"U","MEAN_ELEMENT_THEORY":"SGP4","MEAN_ANOMALY":"251.5158","EPOCH":"2022-10-09T21:27:25.476768","FILE":"3598879","NORAD_CAT_ID":"47178","ECCENTRICITY":"0.00013720","TIME_SYSTEM":"UTC","LAUNCH_DATE":"2020-11-25","MEAN_MOTION_DOT":"0.00003755","TLE_LINE2":"2 47178  53.0549 138.7115 0001372 108.5980 251.5158 15.06405882103915"},{"COUNTRY_CODE":"US","OBJECT_ID":"2020-088BK","DECAY_DATE":null,"REV_AT_EPOCH":"10374","TLE_LINE1":"1 47179U 20088BK  22282.68296557  .00077660  00000-0  51427-2 0  9997","SEMIMAJOR_AXIS":"6924.672","OBJECT_NAME":"STARLINK-1913","ARG_OF_PERICENTER":"132.1800","PERIOD":"95.578","SITE":"AFETR","OBJECT_TYPE":"PAYLOAD","INCLINATION":"53.0538","RCS_SIZE":"LARGE","REF_FRAME":"TEME","BSTAR":"0.00514270000000","EPHEMERIS_TYPE":"0","ELEMENT_SET_NO":"999","CLASSIFICATION_TYPE":"U","MEAN_ELEMENT_THEORY":"SGP4","MEAN_ANOMALY":"227.9774","EPOCH":"2022-10-09T16:23:28.225248","LAUNCH_DATE":"2020-11-25","MEAN_MOTION_DOT":"0.00077660","TLE_LINE2":"2 47179  53.0538 149.6590 0006866 132.1800 227.9774 15.06620732103744","NORAD_CAT_ID":"47179","FILE":"3598879","TIME_SYSTEM":"UTC","ECCENTRICITY":"0.00068660","RA_OF_ASC_NODE":"149.6590","PERIAPSIS":"541.783","GP_ID":"214603184","MEAN_MOTION":"15.06620732","APOAPSIS":"551.292","MEAN_MOTION_DDOT":"0.0000000000000","CENTER_NAME":"EARTH"},{"SITE":"AFETR","PERIOD":"95.592","BSTAR":"0.00021580000000","EPHEMERIS_TYPE":"0","REF_FRAME":"TEME","RCS_SIZE":"LARGE","OBJECT_TYPE":"PAYLOAD","INCLINATION":"53.0526","REV_AT_EPOCH":"10418","DECAY_DATE":null,"OBJECT_ID":"2020-088BM","COUNTRY_CODE":"US","TLE_LINE1":"1 47181U 20088BM  22282.85535167  .00002935  00000-0  21580-3 0  9993","SEMIMAJOR_AXIS":"6925.340","OBJECT_NAME":"STARLINK-1927","ARG_OF_PERICENTER":"114.0299","PERIAPSIS":"546.350","RA_OF_ASC_NODE":"118.8896","MEAN_MOTION_DDOT":"0.0000000000000","CENTER_NAME":"EARTH","APOAPSIS":"548.059","GP_ID":"214601935","MEAN_MOTION":"15.06402907","MEAN_ELEMENT_THEORY":"SGP4","MEAN_ANOMALY":"246.0819","ELEMENT_SET_NO":"999","CLASSIFICATION_TYPE":"U","FILE":"3598879","TIME_SYSTEM":"UTC","NORAD_CAT_ID":"47181","ECCENTRICITY":"0.00012340","MEAN_MOTION_DOT":"0.00002935","LAUNCH_DATE":"2020-11-25","TLE_LINE2":"2 47181  53.0526 118.8896 0001234 114.0299 246.0819 15.06402907104189","EPOCH":"2022-10-09T20:31:42.384288"},{"MEAN_MOTION":"15.06400128","GP_ID":"214558713","APOAPSIS":"548.221","CENTER_NAME":"EARTH","MEAN_MOTION_DDOT":"0.0000000000000","RA_OF_ASC_NODE":"261.3917","PERIAPSIS":"546.206","EPOCH":"2022-10-09T07:07:34.351104","TLE_LINE2":"2 47350  53.0538 261.3917 0001455  58.9547 301.1585 15.06400128 95034","MEAN_MOTION_DOT":"0.00000258","LAUNCH_DATE":"2021-01-20","FILE":"3597861","ECCENTRICITY":"0.00014550","NORAD_CAT_ID":"47350","TIME_SYSTEM":"UTC","CLASSIFICATION_TYPE":"U","ELEMENT_SET_NO":"999","MEAN_ANOMALY":"301.1585","MEAN_ELEMENT_THEORY":"SGP4","INCLINATION":"53.0538","OBJECT_TYPE":"PAYLOAD","RCS_SIZE":"LARGE","REF_FRAME":"TEME","EPHEMERIS_TYPE":"0","BSTAR":"0.00003621000000","PERIOD":"95.592","SITE":"AFETR","TLE_LINE1":"1 47350U 21005B   22282.29692536  .00000258  00000-0  36210-4 0  9996","SEMIMAJOR_AXIS":"6925.348","ARG_OF_PERICENTER":"58.9547","OBJECT_NAME":"STARLINK-2011","COUNTRY_CODE":"US","OBJECT_ID":"2021-005B","DECAY_DATE":null,"REV_AT_EPOCH":"9503"},{"RA_OF_ASC_NODE":"220.3494","PERIAPSIS":"546.235","GP_ID":"214558963","MEAN_MOTION":"15.06402304","MEAN_MOTION_DDOT":"0.0000000000000","CENTER_NAME":"EARTH","APOAPSIS":"548.178","ELEMENT_SET_NO":"999","CLASSIFICATION_TYPE":"U","MEAN_ELEMENT_THEORY":"SGP4","MEAN_ANOMALY":"274.5385","EPOCH":"2022-10-09T12:35:17.402208","ECCENTRICITY":"0.00014030","FILE":"3597861","NORAD_CAT_ID":"47351","TIME_SYSTEM":"UTC","MEAN_MOTION_DOT":"0.00001412","LAUNCH_DATE":"2021-01-20","TLE_LINE2":"2 47351  53.0553 220.3494 0001403  85.5764 274.5385 15.06402304 95621","PERIOD":"95.592","SITE":"AFETR","RCS_SIZE":"LARGE","OBJECT_TYPE":"PAYLOAD","INCLINATION":"53.0553","BSTAR":"0.00011365000000","EPHEMERIS_TYPE":"0","REF_FRAME":"TEME","OBJECT_ID":"2021-005C","COUNTRY_CODE":"US","REV_AT_EPOCH":"9562","DECAY_DATE":null,"SEMIMAJOR_AXIS":"6925.341","TLE_LINE1":"1 47351U 21005C   22282.52450697  .00001412  00000-0  11365-3 0  9999","ARG_OF_PERICENTER":"85.5764","OBJECT_NAME":"STARLINK-2017"}];
